QIANFAN-73              
1 63159U 25046A   25260.91247189  .00000124  00000+0  17395-3 0  9991
2 63159  88.9840 328.8922 0015029  20.8874 339.2888 13.50973078 35825
QIANFAN-74              
1 63160U 25046B   25260.89588809  .00000138  00000+0  19443-3 0  9998
2 63160  88.9839 328.7821 0002217 107.6612 252.4782 13.50979267 35882
QIANFAN-75              
1 63161U 25046C   25260.88367567  .00000152  00000+0  21747-3 0  9990
2 63161  88.9841 329.0157 0016217  23.4267 336.7619 13.50976032 35756
QIANFAN-76              
1 63162U 25046D   25260.87951925  .00000109  00000+0  14951-3 0  9998
2 63162  88.9840 328.9972 0013831  25.5501 334.6331 13.50971169 35767
QIANFAN-77              
1 63163U 25046E   25260.89189428  .00000330  00000+0  23059-3 0  9997
2 63163  88.9836 327.7080 0013931 357.9048   2.2068 13.96045331 36476
QIANFAN-78              
1 63164U 25046F   25260.92068878  .00000138  00000+0  19481-3 0  9997
2 63164  88.9839 328.8579 0015277  26.8619 333.3320 13.50975229 35843
QIANFAN-79              
1 63165U 25046G   25260.87526592  .00000128  00000+0  17953-3 0  9995
2 63165  88.9843 328.9667 0014902  25.5030 334.6853 13.50977575 35789
QIANFAN-80              
1 63166U 25046H   25260.89184241  .00000155  00000+0  22145-3 0  9998
2 63166  88.9840 328.6743 0014079  30.3001 329.8962 13.50977836 35941
