<?xml version="1.0" encoding="UTF-8"?>
<ndm xmlns:xsi="http://www.w3.org/2001/XMLSchema-instance" xsi:noNamespaceSchemaLocation="https://sanaregistry.org/r/ndmxml_unqualified/ndmxml-2.0.0-master-2.0.xsd">
<omm id="CCSDS_OMM_VERS" version="2.0">
<header><CREATION_DATE/><ORIGINATOR/></header><body><segment><metadata><OBJECT_NAME>QIANFAN-73</OBJECT_NAME><OBJECT_ID>2025-046A</OBJECT_ID><CENTER_NAME>EARTH</CENTER_NAME><REF_FRAME>TEME</REF_FRAME><TIME_SYSTEM>UTC</TIME_SYSTEM><MEAN_ELEMENT_THEORY>SGP4</MEAN_ELEMENT_THEORY></metadata><data><meanElements><EPOCH>2025-09-17T21:53:57.571296</EPOCH><MEAN_MOTION>13.50973078</MEAN_MOTION><ECCENTRICITY>.00150299</ECCENTRICITY><INCLINATION>88.9840</INCLINATION><RA_OF_ASC_NODE>328.8922</RA_OF_ASC_NODE><ARG_OF_PERICENTER>20.8874</ARG_OF_PERICENTER><MEAN_ANOMALY>339.2888</MEAN_ANOMALY></meanElements><tleParameters><EPHEMERIS_TYPE>0</EPHEMERIS_TYPE><CLASSIFICATION_TYPE>U</CLASSIFICATION_TYPE><NORAD_CAT_ID>63159</NORAD_CAT_ID><ELEMENT_SET_NO>999</ELEMENT_SET_NO><REV_AT_EPOCH>3582</REV_AT_EPOCH><BSTAR>.17394836E-3</BSTAR><MEAN_MOTION_DOT>.124E-5</MEAN_MOTION_DOT><MEAN_MOTION_DDOT>0</MEAN_MOTION_DDOT></tleParameters></data></segment></body></omm>
<omm id="CCSDS_OMM_VERS" version="2.0">
<header><CREATION_DATE/><ORIGINATOR/></header><body><segment><metadata><OBJECT_NAME>QIANFAN-74</OBJECT_NAME><OBJECT_ID>2025-046B</OBJECT_ID><CENTER_NAME>EARTH</CENTER_NAME><REF_FRAME>TEME</REF_FRAME><TIME_SYSTEM>UTC</TIME_SYSTEM><MEAN_ELEMENT_THEORY>SGP4</MEAN_ELEMENT_THEORY></metadata><data><meanElements><EPOCH>2025-09-17T21:30:04.730976</EPOCH><MEAN_MOTION>13.50979267</MEAN_MOTION><ECCENTRICITY>.00022179</ECCENTRICITY><INCLINATION>88.9839</INCLINATION><RA_OF_ASC_NODE>328.7821</RA_OF_ASC_NODE><ARG_OF_PERICENTER>107.6612</ARG_OF_PERICENTER><MEAN_ANOMALY>252.4782</MEAN_ANOMALY></meanElements><tleParameters><EPHEMERIS_TYPE>0</EPHEMERIS_TYPE><CLASSIFICATION_TYPE>U</CLASSIFICATION_TYPE><NORAD_CAT_ID>63160</NORAD_CAT_ID><ELEMENT_SET_NO>999</ELEMENT_SET_NO><REV_AT_EPOCH>3588</REV_AT_EPOCH><BSTAR>.19443398E-3</BSTAR><MEAN_MOTION_DOT>.138E-5</MEAN_MOTION_DOT><MEAN_MOTION_DDOT>0</MEAN_MOTION_DDOT></tleParameters></data></segment></body></omm>
<omm id="CCSDS_OMM_VERS" version="2.0">
<header><CREATION_DATE/><ORIGINATOR/></header><body><segment><metadata><OBJECT_NAME>QIANFAN-75</OBJECT_NAME><OBJECT_ID>2025-046C</OBJECT_ID><CENTER_NAME>EARTH</CENTER_NAME><REF_FRAME>TEME</REF_FRAME><TIME_SYSTEM>UTC</TIME_SYSTEM><MEAN_ELEMENT_THEORY>SGP4</MEAN_ELEMENT_THEORY></metadata><data><meanElements><EPOCH>2025-09-17T21:12:29.577888</EPOCH><MEAN_MOTION>13.50976032</MEAN_MOTION><ECCENTRICITY>.00162177</ECCENTRICITY><INCLINATION>88.9841</INCLINATION><RA_OF_ASC_NODE>329.0157</RA_OF_ASC_NODE><ARG_OF_PERICENTER>23.4267</ARG_OF_PERICENTER><MEAN_ANOMALY>336.7619</MEAN_ANOMALY></meanElements><tleParameters><EPHEMERIS_TYPE>0</EPHEMERIS_TYPE><CLASSIFICATION_TYPE>U</CLASSIFICATION_TYPE><NORAD_CAT_ID>63161</NORAD_CAT_ID><ELEMENT_SET_NO>999</ELEMENT_SET_NO><REV_AT_EPOCH>3575</REV_AT_EPOCH><BSTAR>.21747376E-3</BSTAR><MEAN_MOTION_DOT>.152E-5</MEAN_MOTION_DOT><MEAN_MOTION_DDOT>0</MEAN_MOTION_DDOT></tleParameters></data></segment></body></omm>
<omm id="CCSDS_OMM_VERS" version="2.0">
<header><CREATION_DATE/><ORIGINATOR/></header><body><segment><metadata><OBJECT_NAME>QIANFAN-76</OBJECT_NAME><OBJECT_ID>2025-046D</OBJECT_ID><CENTER_NAME>EARTH</CENTER_NAME><REF_FRAME>TEME</REF_FRAME><TIME_SYSTEM>UTC</TIME_SYSTEM><MEAN_ELEMENT_THEORY>SGP4</MEAN_ELEMENT_THEORY></metadata><data><meanElements><EPOCH>2025-09-17T21:06:30.463200</EPOCH><MEAN_MOTION>13.50971169</MEAN_MOTION><ECCENTRICITY>.00138311</ECCENTRICITY><INCLINATION>88.9840</INCLINATION><RA_OF_ASC_NODE>328.9972</RA_OF_ASC_NODE><ARG_OF_PERICENTER>25.5501</ARG_OF_PERICENTER><MEAN_ANOMALY>334.6331</MEAN_ANOMALY></meanElements><tleParameters><EPHEMERIS_TYPE>0</EPHEMERIS_TYPE><CLASSIFICATION_TYPE>U</CLASSIFICATION_TYPE><NORAD_CAT_ID>63162</NORAD_CAT_ID><ELEMENT_SET_NO>999</ELEMENT_SET_NO><REV_AT_EPOCH>3576</REV_AT_EPOCH><BSTAR>.14951191E-3</BSTAR><MEAN_MOTION_DOT>.109E-5</MEAN_MOTION_DOT><MEAN_MOTION_DDOT>0</MEAN_MOTION_DDOT></tleParameters></data></segment></body></omm>
<omm id="CCSDS_OMM_VERS" version="2.0">
<header><CREATION_DATE/><ORIGINATOR/></header><body><segment><metadata><OBJECT_NAME>QIANFAN-77</OBJECT_NAME><OBJECT_ID>2025-046E</OBJECT_ID><CENTER_NAME>EARTH</CENTER_NAME><REF_FRAME>TEME</REF_FRAME><TIME_SYSTEM>UTC</TIME_SYSTEM><MEAN_ELEMENT_THEORY>SGP4</MEAN_ELEMENT_THEORY></metadata><data><meanElements><EPOCH>2025-09-17T21:24:19.665792</EPOCH><MEAN_MOTION>13.96045331</MEAN_MOTION><ECCENTRICITY>.00139313</ECCENTRICITY><INCLINATION>88.9836</INCLINATION><RA_OF_ASC_NODE>327.7080</RA_OF_ASC_NODE><ARG_OF_PERICENTER>357.9048</ARG_OF_PERICENTER><MEAN_ANOMALY>2.2068</MEAN_ANOMALY></meanElements><tleParameters><EPHEMERIS_TYPE>0</EPHEMERIS_TYPE><CLASSIFICATION_TYPE>U</CLASSIFICATION_TYPE><NORAD_CAT_ID>63163</NORAD_CAT_ID><ELEMENT_SET_NO>999</ELEMENT_SET_NO><REV_AT_EPOCH>3647</REV_AT_EPOCH><BSTAR>.23058653E-3</BSTAR><MEAN_MOTION_DOT>.33E-5</MEAN_MOTION_DOT><MEAN_MOTION_DDOT>0</MEAN_MOTION_DDOT></tleParameters></data></segment></body></omm>
<omm id="CCSDS_OMM_VERS" version="2.0">
<header><CREATION_DATE/><ORIGINATOR/></header><body><segment><metadata><OBJECT_NAME>QIANFAN-78</OBJECT_NAME><OBJECT_ID>2025-046F</OBJECT_ID><CENTER_NAME>EARTH</CENTER_NAME><REF_FRAME>TEME</REF_FRAME><TIME_SYSTEM>UTC</TIME_SYSTEM><MEAN_ELEMENT_THEORY>SGP4</MEAN_ELEMENT_THEORY></metadata><data><meanElements><EPOCH>2025-09-17T22:05:47.510592</EPOCH><MEAN_MOTION>13.50975229</MEAN_MOTION><ECCENTRICITY>.00152774</ECCENTRICITY><INCLINATION>88.9839</INCLINATION><RA_OF_ASC_NODE>328.8579</RA_OF_ASC_NODE><ARG_OF_PERICENTER>26.8619</ARG_OF_PERICENTER><MEAN_ANOMALY>333.3320</MEAN_ANOMALY></meanElements><tleParameters><EPHEMERIS_TYPE>0</EPHEMERIS_TYPE><CLASSIFICATION_TYPE>U</CLASSIFICATION_TYPE><NORAD_CAT_ID>63164</NORAD_CAT_ID><ELEMENT_SET_NO>999</ELEMENT_SET_NO><REV_AT_EPOCH>3584</REV_AT_EPOCH><BSTAR>.1948121E-3</BSTAR><MEAN_MOTION_DOT>.138E-5</MEAN_MOTION_DOT><MEAN_MOTION_DDOT>0</MEAN_MOTION_DDOT></tleParameters></data></segment></body></omm>
<omm id="CCSDS_OMM_VERS" version="2.0">
<header><CREATION_DATE/><ORIGINATOR/></header><body><segment><metadata><OBJECT_NAME>QIANFAN-79</OBJECT_NAME><OBJECT_ID>2025-046G</OBJECT_ID><CENTER_NAME>EARTH</CENTER_NAME><REF_FRAME>TEME</REF_FRAME><TIME_SYSTEM>UTC</TIME_SYSTEM><MEAN_ELEMENT_THEORY>SGP4</MEAN_ELEMENT_THEORY></metadata><data><meanElements><EPOCH>2025-09-17T21:00:22.975488</EPOCH><MEAN_MOTION>13.50977575</MEAN_MOTION><ECCENTRICITY>.00149023</ECCENTRICITY><INCLINATION>88.9843</INCLINATION><RA_OF_ASC_NODE>328.9667</RA_OF_ASC_NODE><ARG_OF_PERICENTER>25.5030</ARG_OF_PERICENTER><MEAN_ANOMALY>334.6853</MEAN_ANOMALY></meanElements><tleParameters><EPHEMERIS_TYPE>0</EPHEMERIS_TYPE><CLASSIFICATION_TYPE>U</CLASSIFICATION_TYPE><NORAD_CAT_ID>63165</NORAD_CAT_ID><ELEMENT_SET_NO>999</ELEMENT_SET_NO><REV_AT_EPOCH>3578</REV_AT_EPOCH><BSTAR>.1795311E-3</BSTAR><MEAN_MOTION_DOT>.128E-5</MEAN_MOTION_DOT><MEAN_MOTION_DDOT>0</MEAN_MOTION_DDOT></tleParameters></data></segment></body></omm>
<omm id="CCSDS_OMM_VERS" version="2.0">
<header><CREATION_DATE/><ORIGINATOR/></header><body><segment><metadata><OBJECT_NAME>QIANFAN-80</OBJECT_NAME><OBJECT_ID>2025-046H</OBJECT_ID><CENTER_NAME>EARTH</CENTER_NAME><REF_FRAME>TEME</REF_FRAME><TIME_SYSTEM>UTC</TIME_SYSTEM><MEAN_ELEMENT_THEORY>SGP4</MEAN_ELEMENT_THEORY></metadata><data><meanElements><EPOCH>2025-09-17T21:24:15.184224</EPOCH><MEAN_MOTION>13.50977836</MEAN_MOTION><ECCENTRICITY>.00140797</ECCENTRICITY><INCLINATION>88.9840</INCLINATION><RA_OF_ASC_NODE>328.6743</RA_OF_ASC_NODE><ARG_OF_PERICENTER>30.3001</ARG_OF_PERICENTER><MEAN_ANOMALY>329.8962</MEAN_ANOMALY></meanElements><tleParameters><EPHEMERIS_TYPE>0</EPHEMERIS_TYPE><CLASSIFICATION_TYPE>U</CLASSIFICATION_TYPE><NORAD_CAT_ID>63166</NORAD_CAT_ID><ELEMENT_SET_NO>999</ELEMENT_SET_NO><REV_AT_EPOCH>3594</REV_AT_EPOCH><BSTAR>.22145321E-3</BSTAR><MEAN_MOTION_DOT>.155E-5</MEAN_MOTION_DOT><MEAN_MOTION_DDOT>0</MEAN_MOTION_DDOT></tleParameters></data></segment></body></omm>

</ndm>
